{"type":"FeatureCollection","features":[{"type":"Feature","properties":{"codigo":"OU2"},"geometry":{"type":"Point","coordinates":[-71.65132,-16.2816846]}},{"type":"Feature","properties":{"codigo":"RDM-1"},"geometry":{"type":"Point","coordinates":[-71.631451,-16.2922594]}},{"type":"Feature","properties":{"codigo":"ZRE-PN"},"geometry":{"type":"Point","coordinates":[-71.6525571,-16.2959705]}},{"type":"Feature","properties":{"codigo":"RDM-1"},"geometry":{"type":"Point","coordinates":[-71.6323819,-16.2967486]}},{"type":"Feature","properties":{"codigo":"I1R"},"geometry":{"type":"Point","coordinates":[-71.646647,-16.2969279]}},{"type":"Feature","properties":{"codigo":"ZRE-PN"},"geometry":{"type":"Point","coordinates":[-71.6406813,-16.2969816]}},{"type":"Feature","properties":{"codigo":"CE"},"geometry":{"type":"Point","coordinates":[-71.6269419,-16.2973421]}},{"type":"Feature","properties":{"codigo":"RDM-2"},"geometry":{"type":"Point","coordinates":[-71.6424009,-16.3001569]}},{"type":"Feature","properties":{"codigo":"CM"},"geometry":{"type":"Point","coordinates":[-71.6499438,-16.3011139]}},{"type":"Feature","properties":{"codigo":"RDM-1"},"geometry":{"type":"Point","coordinates":[-71.6180964,-16.3016163]}},{"type":"Feature","properties":{"codigo":"RDM-2"},"geometry":{"type":"Point","coordinates":[-71.6253166,-16.3025362]}},{"type":"Feature","properties":{"codigo":"CIn"},"geometry":{"type":"Point","coordinates":[-71.6442921,-16.3028883]}},{"type":"Feature","properties":{"codigo":"CE"},"geometry":{"type":"Point","coordinates":[-71.6195039,-16.3029659]}},{"type":"Feature","properties":{"codigo":"ZRE-PN"},"geometry":{"type":"Point","coordinates":[-71.6534612,-16.3048975]}},{"type":"Feature","properties":{"codigo":"ZRE-PN"},"geometry":{"type":"Point","coordinates":[-71.6484713,-16.3046657]}},{"type":"Feature","properties":{"codigo":"ZRE-PN"},"geometry":{"type":"Point","coordinates":[-71.6457342,-16.3051627]}},{"type":"Feature","properties":{"codigo":"RDM-2"},"geometry":{"type":"Point","coordinates":[-71.621169,-16.3050484]}},{"type":"Feature","properties":{"codigo":"ZRE-RI2"},"geometry":{"type":"Point","coordinates":[-71.6328527,-16.307532]}},{"type":"Feature","properties":{"codigo":"RDM-1"},"geometry":{"type":"Point","coordinates":[-71.607216,-16.3104371]}},{"type":"Feature","properties":{"codigo":"ZRE-RI1"},"geometry":{"type":"Point","coordinates":[-71.5378096,-16.3138489]}},{"type":"Feature","properties":{"codigo":"RDM-2"},"geometry":{"type":"Point","coordinates":[-71.6146175,-16.3135004]}},{"type":"Feature","properties":{"codigo":"ZRE-RI2"},"geometry":{"type":"Point","coordinates":[-71.5950404,-16.3135947]}},{"type":"Feature","properties":{"codigo":"ZRE-RI1"},"geometry":{"type":"Point","coordinates":[-71.6189981,-16.315381]}},{"type":"Feature","properties":{"codigo":"RDM-1"},"geometry":{"type":"Point","coordinates":[-71.6449203,-16.315878]}},{"type":"Feature","properties":{"codigo":"OU2"},"geometry":{"type":"Point","coordinates":[-71.5304945,-16.3174493]}},{"type":"Feature","properties":{"codigo":"RDM-1"},"geometry":{"type":"Point","coordinates":[-71.634549,-16.3171224]}},{"type":"Feature","properties":{"codigo":"RDM-1"},"geometry":{"type":"Point","coordinates":[-71.5529358,-16.3181044]}},{"type":"Feature","properties":{"codigo":"RDM-1"},"geometry":{"type":"Point","coordinates":[-71.6247818,-16.3179592]}},{"type":"Feature","properties":{"codigo":"CE"},"geometry":{"type":"Point","coordinates":[-71.6013301,-16.3201845]}},{"type":"Feature","properties":{"codigo":"RDM-1"},"geometry":{"type":"Point","coordinates":[-71.5922159,-16.3207173]}},{"type":"Feature","properties":{"codigo":"RDM-1"},"geometry":{"type":"Point","coordinates":[-71.5799761,-16.3207201]}},{"type":"Feature","properties":{"codigo":"ZRE-RI1"},"geometry":{"type":"Point","coordinates":[-71.5454587,-16.3226327]}},{"type":"Feature","properties":{"codigo":"ZR"},"geometry":{"type":"Point","coordinates":[-71.5598353,-16.3228163]}},{"type":"Feature","properties":{"codigo":"ZRE-RI1"},"geometry":{"type":"Point","coordinates":[-71.535142,-16.3248602]}},{"type":"Feature","properties":{"codigo":"RDM-1"},"geometry":{"type":"Point","coordinates":[-71.6166162,-16.3246015]}},{"type":"Feature","properties":{"codigo":"RDM-2"},"geometry":{"type":"Point","coordinates":[-71.5776582,-16.324997]}},{"type":"Feature","properties":{"codigo":"RDM-2"},"geometry":{"type":"Point","coordinates":[-71.5656258,-16.3259009]}},{"type":"Feature","properties":{"codigo":"RDM-2"},"geometry":{"type":"Point","coordinates":[-71.5537325,-16.3257928]}},{"type":"Feature","properties":{"codigo":"CZ"},"geometry":{"type":"Point","coordinates":[-71.579388,-16.3262589]}},{"type":"Feature","properties":{"codigo":"ZR"},"geometry":{"type":"Point","coordinates":[-71.560163,-16.3262407]}},{"type":"Feature","properties":{"codigo":"CZ"},"geometry":{"type":"Point","coordinates":[-71.5898031,-16.3265939]}},{"type":"Feature","properties":{"codigo":"ZR"},"geometry":{"type":"Point","coordinates":[-71.5564463,-16.3268326]}},{"type":"Feature","properties":{"codigo":"ZRE-RI2"},"geometry":{"type":"Point","coordinates":[-71.6038632,-16.3269677]}},{"type":"Feature","properties":{"codigo":"CZ"},"geometry":{"type":"Point","coordinates":[-71.5663376,-16.3275959]}},{"type":"Feature","properties":{"codigo":"CZ"},"geometry":{"type":"Point","coordinates":[-71.5582769,-16.3274414]}},{"type":"Feature","properties":{"codigo":"CZ"},"geometry":{"type":"Point","coordinates":[-71.5545971,-16.3275281]}},{"type":"Feature","properties":{"codigo":"RDM-1"},"geometry":{"type":"Point","coordinates":[-71.6495047,-16.3280187]}},{"type":"Feature","properties":{"codigo":"RDM-2"},"geometry":{"type":"Point","coordinates":[-71.5777042,-16.3285089]}},{"type":"Feature","properties":{"codigo":"RDM-2"},"geometry":{"type":"Point","coordinates":[-71.567108,-16.3293322]}},{"type":"Feature","properties":{"codigo":"ZR"},"geometry":{"type":"Point","coordinates":[-71.5601118,-16.3289966]}},{"type":"Feature","properties":{"codigo":"OU2"},"geometry":{"type":"Point","coordinates":[-71.5564098,-16.3290205]}},{"type":"Feature","properties":{"codigo":"RDM-2"},"geometry":{"type":"Point","coordinates":[-71.5541701,-16.3293]}},{"type":"Feature","properties":{"codigo":"ZRE-RI1"},"geometry":{"type":"Point","coordinates":[-71.5430167,-16.3291613]}},{"type":"Feature","properties":{"codigo":"RDM-1"},"geometry":{"type":"Point","coordinates":[-71.5901806,-16.3298914]}},{"type":"Feature","properties":{"codigo":"I1R"},"geometry":{"type":"Point","coordinates":[-71.5979439,-16.3306582]}},{"type":"Feature","properties":{"codigo":"RDM-1"},"geometry":{"type":"Point","coordinates":[-71.565981,-16.3314281]}},{"type":"Feature","properties":{"codigo":"RDM-1"},"geometry":{"type":"Point","coordinates":[-71.5543363,-16.3320322]}},{"type":"Feature","properties":{"codigo":"ZRE-PN"},"geometry":{"type":"Point","coordinates":[-71.6286259,-16.3318554]}},{"type":"Feature","properties":{"codigo":"ZRE-PN"},"geometry":{"type":"Point","coordinates":[-71.6344056,-16.3324563]}},{"type":"Feature","properties":{"codigo":"RDM-1"},"geometry":{"type":"Point","coordinates":[-71.5830762,-16.332902]}},{"type":"Feature","properties":{"codigo":"CS"},"geometry":{"type":"Point","coordinates":[-71.5557619,-16.3331087]}},{"type":"Feature","properties":{"codigo":"OU2"},"geometry":{"type":"Point","coordinates":[-71.5910124,-16.3335198]}},{"type":"Feature","properties":{"codigo":"CE"},"geometry":{"type":"Point","coordinates":[-71.5958942,-16.3340486]}},{"type":"Feature","properties":{"codigo":"ZRE-RI2"},"geometry":{"type":"Point","coordinates":[-71.5175202,-16.3349569]}},{"type":"Feature","properties":{"codigo":"I1R"},"geometry":{"type":"Point","coordinates":[-71.5937181,-16.3355687]}},{"type":"Feature","properties":{"codigo":"ZRE-RI2"},"geometry":{"type":"Point","coordinates":[-71.6562504,-16.3356524]}},{"type":"Feature","properties":{"codigo":"ZRE-PN"},"geometry":{"type":"Point","coordinates":[-71.6408546,-16.3358668]}},{"type":"Feature","properties":{"codigo":"CS"},"geometry":{"type":"Point","coordinates":[-71.5401291,-16.3369363]}},{"type":"Feature","properties":{"codigo":"ZRE-PN"},"geometry":{"type":"Point","coordinates":[-71.5270465,-16.3372828]}},{"type":"Feature","properties":{"codigo":"RDM-1"},"geometry":{"type":"Point","coordinates":[-71.6531334,-16.3370797]}},{"type":"Feature","properties":{"codigo":"OU1"},"geometry":{"type":"Point","coordinates":[-71.5410012,-16.338377]}},{"type":"Feature","properties":{"codigo":"RDM-2"},"geometry":{"type":"Point","coordinates":[-71.606387,-16.3382728]}},{"type":"Feature","properties":{"codigo":"ZRE-RI1"},"geometry":{"type":"Point","coordinates":[-71.5937805,-16.3386176]}},{"type":"Feature","properties":{"codigo":"RDM-1"},"geometry":{"type":"Point","coordinates":[-71.6585609,-16.3390093]}},{"type":"Feature","properties":{"codigo":"RDM-1"},"geometry":{"type":"Point","coordinates":[-71.5216438,-16.3405866]}},{"type":"Feature","properties":{"codigo":"CZ"},"geometry":{"type":"Point","coordinates":[-71.5892927,-16.340755]}},{"type":"Feature","properties":{"codigo":"OU2"},"geometry":{"type":"Point","coordinates":[-71.5673357,-16.3417597]}},{"type":"Feature","properties":{"codigo":"RDM-1"},"geometry":{"type":"Point","coordinates":[-71.5434461,-16.3421545]}},{"type":"Feature","properties":{"codigo":"RDM-2"},"geometry":{"type":"Point","coordinates":[-71.5992567,-16.3426093]}},{"type":"Feature","properties":{"codigo":"CZ"},"geometry":{"type":"Point","coordinates":[-71.5840471,-16.3426912]}},{"type":"Feature","properties":{"codigo":"RDM-2"},"geometry":{"type":"Point","coordinates":[-71.6061337,-16.3438074]}},{"type":"Feature","properties":{"codigo":"RDM-2"},"geometry":{"type":"Point","coordinates":[-71.5542959,-16.345683]}},{"type":"Feature","properties":{"codigo":"CM"},"geometry":{"type":"Point","coordinates":[-71.5799944,-16.3456854]}},{"type":"Feature","properties":{"codigo":"I1R"},"geometry":{"type":"Point","coordinates":[-71.5875847,-16.3461602]}},{"type":"Feature","properties":{"codigo":"RDM-2"},"geometry":{"type":"Point","coordinates":[-71.5514976,-16.3465793]}},{"type":"Feature","properties":{"codigo":"ZRE-PN"},"geometry":{"type":"Point","coordinates":[-71.6035133,-16.346616]}},{"type":"Feature","properties":{"codigo":"ZRE-RI1"},"geometry":{"type":"Point","coordinates":[-71.5151393,-16.348047]}},{"type":"Feature","properties":{"codigo":"OU2"},"geometry":{"type":"Point","coordinates":[-71.5766997,-16.3482496]}},{"type":"Feature","properties":{"codigo":"CS"},"geometry":{"type":"Point","coordinates":[-71.5625568,-16.3480856]}},{"type":"Feature","properties":{"codigo":"RDM-2"},"geometry":{"type":"Point","coordinates":[-71.5462717,-16.3484092]}},{"type":"Feature","properties":{"codigo":"ZRE-RI2"},"geometry":{"type":"Point","coordinates":[-71.6561121,-16.3479785]}},{"type":"Feature","properties":{"codigo":"RDA-2"},"geometry":{"type":"Point","coordinates":[-71.6237706,-16.3482576]}},{"type":"Feature","properties":{"codigo":"CZ"},"geometry":{"type":"Point","coordinates":[-71.5828013,-16.3489952]}},{"type":"Feature","properties":{"codigo":"CS"},"geometry":{"type":"Point","coordinates":[-71.5214912,-16.3493803]}},{"type":"Feature","properties":{"codigo":"RDM-1"},"geometry":{"type":"Point","coordinates":[-71.6594285,-16.3483993]}},{"type":"Feature","properties":{"codigo":"ZRE-RI1"},"geometry":{"type":"Point","coordinates":[-71.5565263,-16.3496942]}},{"type":"Feature","properties":{"codigo":"CS"},"geometry":{"type":"Point","coordinates":[-71.5411408,-16.3511634]}},{"type":"Feature","properties":{"codigo":"RDM-1"},"geometry":{"type":"Point","coordinates":[-71.5190802,-16.3513022]}},{"type":"Feature","properties":{"codigo":"RDM-2"},"geometry":{"type":"Point","coordinates":[-71.60153,-16.3514358]}},{"type":"Feature","properties":{"codigo":"CIn"},"geometry":{"type":"Point","coordinates":[-71.5840402,-16.3512725]}},{"type":"Feature","properties":{"codigo":"RDM-2"},"geometry":{"type":"Point","coordinates":[-71.5735151,-16.3512331]}},{"type":"Feature","properties":{"codigo":"ZRE-RI2"},"geometry":{"type":"Point","coordinates":[-71.6438314,-16.351498]}},{"type":"Feature","properties":{"codigo":"ZRE-RI2"},"geometry":{"type":"Point","coordinates":[-71.6168456,-16.3516457]}},{"type":"Feature","properties":{"codigo":"CE"},"geometry":{"type":"Point","coordinates":[-71.6109868,-16.3519918]}},{"type":"Feature","properties":{"codigo":"I-2"},"geometry":{"type":"Point","coordinates":[-71.5908209,-16.3520305]}},{"type":"Feature","properties":{"codigo":"ZRE-PA"},"geometry":{"type":"Point","coordinates":[-71.5762381,-16.3521042]}},{"type":"Feature","properties":{"codigo":"RDM-1"},"geometry":{"type":"Point","coordinates":[-71.526203,-16.3529626]}},{"type":"Feature","properties":{"codigo":"ZRE-PN"},"geometry":{"type":"Point","coordinates":[-71.5963432,-16.352909]}},{"type":"Feature","properties":{"codigo":"RDM-2"},"geometry":{"type":"Point","coordinates":[-71.5618691,-16.3534993]}},{"type":"Feature","properties":{"codigo":"I-1"},"geometry":{"type":"Point","coordinates":[-71.5723025,-16.3551179]}},{"type":"Feature","properties":{"codigo":"ZRE-RI1"},"geometry":{"type":"Point","coordinates":[-71.5146353,-16.3563191]}},{"type":"Feature","properties":{"codigo":"RDM-1"},"geometry":{"type":"Point","coordinates":[-71.6156767,-16.355467]}},{"type":"Feature","properties":{"codigo":"RDM-2"},"geometry":{"type":"Point","coordinates":[-71.6519304,-16.3560651]}},{"type":"Feature","properties":{"codigo":"ZRE-PN"},"geometry":{"type":"Point","coordinates":[-71.5324239,-16.3573469]}},{"type":"Feature","properties":{"codigo":"RDM-2"},"geometry":{"type":"Point","coordinates":[-71.63025,-16.3571573]}},{"type":"Feature","properties":{"codigo":"I1R"},"geometry":{"type":"Point","coordinates":[-71.5199796,-16.358611]}},{"type":"Feature","properties":{"codigo":"I-1"},"geometry":{"type":"Point","coordinates":[-71.5734888,-16.3592047]}},{"type":"Feature","properties":{"codigo":"ZRE-RI1"},"geometry":{"type":"Point","coordinates":[-71.5073802,-16.3596448]}},{"type":"Feature","properties":{"codigo":"RDM-2"},"geometry":{"type":"Point","coordinates":[-71.5417022,-16.3605584]}},{"type":"Feature","properties":{"codigo":"ZRE-RI2"},"geometry":{"type":"Point","coordinates":[-71.6240841,-16.3603049]}},{"type":"Feature","properties":{"codigo":"ZRE-PN"},"geometry":{"type":"Point","coordinates":[-71.611801,-16.3605207]}},{"type":"Feature","properties":{"codigo":"RDM-2"},"geometry":{"type":"Point","coordinates":[-71.5597872,-16.3608861]}},{"type":"Feature","properties":{"codigo":"RDB"},"geometry":{"type":"Point","coordinates":[-71.5138773,-16.3617969]}},{"type":"Feature","properties":{"codigo":"ZA"},"geometry":{"type":"Point","coordinates":[-71.5700108,-16.3614556]}},{"type":"Feature","properties":{"codigo":"RDM-2"},"geometry":{"type":"Point","coordinates":[-71.6419676,-16.3619109]}},{"type":"Feature","properties":{"codigo":"RDM-1"},"geometry":{"type":"Point","coordinates":[-71.6150342,-16.3611956]}},{"type":"Feature","properties":{"codigo":"CIn"},"geometry":{"type":"Point","coordinates":[-71.5780385,-16.3620095]}},{"type":"Feature","properties":{"codigo":"OU2"},"geometry":{"type":"Point","coordinates":[-71.5446115,-16.3631734]}},{"type":"Feature","properties":{"codigo":"ZRE-RI1"},"geometry":{"type":"Point","coordinates":[-71.5040699,-16.3631337]}},{"type":"Feature","properties":{"codigo":"I-2"},"geometry":{"type":"Point","coordinates":[-71.6077869,-16.3633256]}},{"type":"Feature","properties":{"codigo":"RDA-2"},"geometry":{"type":"Point","coordinates":[-71.5644406,-16.3635847]}},{"type":"Feature","properties":{"codigo":"I1R"},"geometry":{"type":"Point","coordinates":[-71.5097057,-16.3643706]}},{"type":"Feature","properties":{"codigo":"OU1"},"geometry":{"type":"Point","coordinates":[-71.49905,-16.3641188]}},{"type":"Feature","properties":{"codigo":"RDM-2"},"geometry":{"type":"Point","coordinates":[-71.618121,-16.3639755]}},{"type":"Feature","properties":{"codigo":"OU2"},"geometry":{"type":"Point","coordinates":[-71.589844,-16.3638416]}},{"type":"Feature","properties":{"codigo":"ZA"},"geometry":{"type":"Point","coordinates":[-71.5517363,-16.3649801]}},{"type":"Feature","properties":{"codigo":"ZRE-PA"},"geometry":{"type":"Point","coordinates":[-71.5391543,-16.3648588]}},{"type":"Feature","properties":{"codigo":"RDM-1"},"geometry":{"type":"Point","coordinates":[-71.5180343,-16.3648601]}},{"type":"Feature","properties":{"codigo":"RDM-1"},"geometry":{"type":"Point","coordinates":[-71.5429201,-16.3654443]}},{"type":"Feature","properties":{"codigo":"I1R"},"geometry":{"type":"Point","coordinates":[-71.5129908,-16.3657196]}},{"type":"Feature","properties":{"codigo":"RDM-2"},"geometry":{"type":"Point","coordinates":[-71.5571696,-16.3656292]}},{"type":"Feature","properties":{"codigo":"ZRE-PA"},"geometry":{"type":"Point","coordinates":[-71.5354444,-16.3660393]}},{"type":"Feature","properties":{"codigo":"ZRE-RI1"},"geometry":{"type":"Point","coordinates":[-71.5014782,-16.366614]}},{"type":"Feature","properties":{"codigo":"RDM-2"},"geometry":{"type":"Point","coordinates":[-71.563647,-16.3662025]}},{"type":"Feature","properties":{"codigo":"CZ"},"geometry":{"type":"Point","coordinates":[-71.5203634,-16.3669776]}},{"type":"Feature","properties":{"codigo":"RDA-2"},"geometry":{"type":"Point","coordinates":[-71.566087,-16.3678764]}},{"type":"Feature","properties":{"codigo":"RDA-2"},"geometry":{"type":"Point","coordinates":[-71.562774,-16.3677485]}},{"type":"Feature","properties":{"codigo":"RDB"},"geometry":{"type":"Point","coordinates":[-71.5476166,-16.3681428]}},{"type":"Feature","properties":{"codigo":"OU2"},"geometry":{"type":"Point","coordinates":[-71.5450498,-16.3684052]}},{"type":"Feature","properties":{"codigo":"OU1"},"geometry":{"type":"Point","coordinates":[-71.5743315,-16.368638]}},{"type":"Feature","properties":{"codigo":"RDM-2"},"geometry":{"type":"Point","coordinates":[-71.5254977,-16.3692507]}},{"type":"Feature","properties":{"codigo":"RDB"},"geometry":{"type":"Point","coordinates":[-71.505857,-16.3700534]}},{"type":"Feature","properties":{"codigo":"OU2"},"geometry":{"type":"Point","coordinates":[-71.6264512,-16.3695293]}},{"type":"Feature","properties":{"codigo":"CZ"},"geometry":{"type":"Point","coordinates":[-71.5709481,-16.3703409]}},{"type":"Feature","properties":{"codigo":"RDM-2"},"geometry":{"type":"Point","coordinates":[-71.5679772,-16.3708189]}},{"type":"Feature","properties":{"codigo":"ZR"},"geometry":{"type":"Point","coordinates":[-71.5630936,-16.3705629]}},{"type":"Feature","properties":{"codigo":"RDM-2"},"geometry":{"type":"Point","coordinates":[-71.5564641,-16.3716742]}},{"type":"Feature","properties":{"codigo":"ZR"},"geometry":{"type":"Point","coordinates":[-71.5396195,-16.3713524]}},{"type":"Feature","properties":{"codigo":"OU1"},"geometry":{"type":"Point","coordinates":[-71.5343971,-16.3717939]}},{"type":"Feature","properties":{"codigo":"ZR"},"geometry":{"type":"Point","coordinates":[-71.5198496,-16.3705384]}},{"type":"Feature","properties":{"codigo":"ZR"},"geometry":{"type":"Point","coordinates":[-71.5146821,-16.3719043]}},{"type":"Feature","properties":{"codigo":"RDM-1"},"geometry":{"type":"Point","coordinates":[-71.5097783,-16.3717104]}},{"type":"Feature","properties":{"codigo":"ZRE-PA"},"geometry":{"type":"Point","coordinates":[-71.5379239,-16.3724665]}},{"type":"Feature","properties":{"codigo":"RDB"},"geometry":{"type":"Point","coordinates":[-71.501909,-16.3730872]}},{"type":"Feature","properties":{"codigo":"ZRE-RI1"},"geometry":{"type":"Point","coordinates":[-71.4967326,-16.3737376]}},{"type":"Feature","properties":{"codigo":"ZRE-PN"},"geometry":{"type":"Point","coordinates":[-71.6253617,-16.3727818]}},{"type":"Feature","properties":{"codigo":"ZA"},"geometry":{"type":"Point","coordinates":[-71.5712092,-16.373114]}},{"type":"Feature","properties":{"codigo":"ZRE-PA"},"geometry":{"type":"Point","coordinates":[-71.5663646,-16.3732994]}},{"type":"Feature","properties":{"codigo":"RDA-1"},"geometry":{"type":"Point","coordinates":[-71.5542215,-16.3734471]}},{"type":"Feature","properties":{"codigo":"RDM-2"},"geometry":{"type":"Point","coordinates":[-71.5462733,-16.3737118]}},{"type":"Feature","properties":{"codigo":"CS"},"geometry":{"type":"Point","coordinates":[-71.5333722,-16.3737203]}},{"type":"Feature","properties":{"codigo":"RDM-2"},"geometry":{"type":"Point","coordinates":[-71.5118388,-16.3743991]}},{"type":"Feature","properties":{"codigo":"RDA-1"},"geometry":{"type":"Point","coordinates":[-71.5444335,-16.3746384]}},{"type":"Feature","properties":{"codigo":"OU1"},"geometry":{"type":"Point","coordinates":[-71.537815,-16.3749708]}},{"type":"Feature","properties":{"codigo":"RDM-1"},"geometry":{"type":"Point","coordinates":[-71.5311651,-16.3745671]}},{"type":"Feature","properties":{"codigo":"RDM-2"},"geometry":{"type":"Point","coordinates":[-71.5265755,-16.3751271]}},{"type":"Feature","properties":{"codigo":"RDA-1"},"geometry":{"type":"Point","coordinates":[-71.5157958,-16.3754666]}},{"type":"Feature","properties":{"codigo":"CZ"},"geometry":{"type":"Point","coordinates":[-71.514212,-16.3748545]}},{"type":"Feature","properties":{"codigo":"RDM-2"},"geometry":{"type":"Point","coordinates":[-71.5631349,-16.3753579]}},{"type":"Feature","properties":{"codigo":"RDA-1"},"geometry":{"type":"Point","coordinates":[-71.5605404,-16.3752002]}},{"type":"Feature","properties":{"codigo":"CS"},"geometry":{"type":"Point","coordinates":[-71.523943,-16.3757266]}},{"type":"Feature","properties":{"codigo":"I1R"},"geometry":{"type":"Point","coordinates":[-71.6169231,-16.3754528]}},{"type":"Feature","properties":{"codigo":"OU1"},"geometry":{"type":"Point","coordinates":[-71.5607722,-16.37627]}},{"type":"Feature","properties":{"codigo":"CZ"},"geometry":{"type":"Point","coordinates":[-71.5564523,-16.3763436]}},{"type":"Feature","properties":{"codigo":"RDM-2"},"geometry":{"type":"Point","coordinates":[-71.545944,-16.3768707]}},{"type":"Feature","properties":{"codigo":"RDM-1"},"geometry":{"type":"Point","coordinates":[-71.6360271,-16.3769599]}},{"type":"Feature","properties":{"codigo":"ZR"},"geometry":{"type":"Point","coordinates":[-71.566195,-16.3778234]}},{"type":"Feature","properties":{"codigo":"RDM-2"},"geometry":{"type":"Point","coordinates":[-71.5434387,-16.3785626]}},{"type":"Feature","properties":{"codigo":"RDM-2"},"geometry":{"type":"Point","coordinates":[-71.5521363,-16.378941]}},{"type":"Feature","properties":{"codigo":"ZRE-RI1"},"geometry":{"type":"Point","coordinates":[-71.4937119,-16.3794735]}},{"type":"Feature","properties":{"codigo":"ZRE-PP"},"geometry":{"type":"Point","coordinates":[-71.5556936,-16.379718]}},{"type":"Feature","properties":{"codigo":"RDB"},"geometry":{"type":"Point","coordinates":[-71.5382693,-16.3798029]}},{"type":"Feature","properties":{"codigo":"OU1"},"geometry":{"type":"Point","coordinates":[-71.5205355,-16.3798058]}},{"type":"Feature","properties":{"codigo":"RDM-1"},"geometry":{"type":"Point","coordinates":[-71.5092325,-16.3801302]}},{"type":"Feature","properties":{"codigo":"ZRE-RI2"},"geometry":{"type":"Point","coordinates":[-71.6486049,-16.3791784]}},{"type":"Feature","properties":{"codigo":"RDM-2"},"geometry":{"type":"Point","coordinates":[-71.5706679,-16.3799772]}},{"type":"Feature","properties":{"codigo":"CS"},"geometry":{"type":"Point","coordinates":[-71.5610009,-16.3807472]}},{"type":"Feature","properties":{"codigo":"OU1"},"geometry":{"type":"Point","coordinates":[-71.5478027,-16.3807603]}},{"type":"Feature","properties":{"codigo":"RDM-1"},"geometry":{"type":"Point","coordinates":[-71.538457,-16.3808102]}},{"type":"Feature","properties":{"codigo":"RDM-2"},"geometry":{"type":"Point","coordinates":[-71.523993,-16.3809843]}},{"type":"Feature","properties":{"codigo":"CIn"},"geometry":{"type":"Point","coordinates":[-71.5775537,-16.3814704]}},{"type":"Feature","properties":{"codigo":"OU1"},"geometry":{"type":"Point","coordinates":[-71.5655672,-16.3814277]}},{"type":"Feature","properties":{"codigo":"RDM-2"},"geometry":{"type":"Point","coordinates":[-71.5541291,-16.3813986]}},{"type":"Feature","properties":{"codigo":"RDB"},"geometry":{"type":"Point","coordinates":[-71.5011506,-16.3819513]}},{"type":"Feature","properties":{"codigo":"ZR"},"geometry":{"type":"Point","coordinates":[-71.5233581,-16.3824642]}},{"type":"Feature","properties":{"codigo":"RDA-1"},"geometry":{"type":"Point","coordinates":[-71.5487461,-16.3829362]}},{"type":"Feature","properties":{"codigo":"ZR"},"geometry":{"type":"Point","coordinates":[-71.5281272,-16.3839844]}},{"type":"Feature","properties":{"codigo":"CZ"},"geometry":{"type":"Point","coordinates":[-71.5103496,-16.384576]}},{"type":"Feature","properties":{"codigo":"ZRE-RU"},"geometry":{"type":"Point","coordinates":[-71.5047658,-16.3843902]}},{"type":"Feature","properties":{"codigo":"ZRE-PA"},"geometry":{"type":"Point","coordinates":[-71.5662292,-16.3845955]}},{"type":"Feature","properties":{"codigo":"ZR"},"geometry":{"type":"Point","coordinates":[-71.5637102,-16.3843949]}},{"type":"Feature","properties":{"codigo":"CS"},"geometry":{"type":"Point","coordinates":[-71.5207557,-16.3853769]}},{"type":"Feature","properties":{"codigo":"ZR"},"geometry":{"type":"Point","coordinates":[-71.4968046,-16.3862727]}},{"type":"Feature","properties":{"codigo":"CS"},"geometry":{"type":"Point","coordinates":[-71.5719808,-16.3857031]}},{"type":"Feature","properties":{"codigo":"RDB"},"geometry":{"type":"Point","coordinates":[-71.5603531,-16.3859081]}},{"type":"Feature","properties":{"codigo":"ZRE-PN"},"geometry":{"type":"Point","coordinates":[-71.6536569,-16.3854873]}},{"type":"Feature","properties":{"codigo":"ZR"},"geometry":{"type":"Point","coordinates":[-71.5651528,-16.3864174]}},{"type":"Feature","properties":{"codigo":"RDM-2"},"geometry":{"type":"Point","coordinates":[-71.5168396,-16.3871907]}},{"type":"Feature","properties":{"codigo":"RDM-2"},"geometry":{"type":"Point","coordinates":[-71.5787958,-16.3867343]}},{"type":"Feature","properties":{"codigo":"ZRE-RU"},"geometry":{"type":"Point","coordinates":[-71.5048771,-16.3879856]}},{"type":"Feature","properties":{"codigo":"ZA"},"geometry":{"type":"Point","coordinates":[-71.5998459,-16.387106]}},{"type":"Feature","properties":{"codigo":"ZR"},"geometry":{"type":"Point","coordinates":[-71.5798537,-16.3876888]}},{"type":"Feature","properties":{"codigo":"RDA-2"},"geometry":{"type":"Point","coordinates":[-71.5601838,-16.3879293]}},{"type":"Feature","properties":{"codigo":"CZ"},"geometry":{"type":"Point","coordinates":[-71.5519688,-16.3883867]}},{"type":"Feature","properties":{"codigo":"ZR"},"geometry":{"type":"Point","coordinates":[-71.5684773,-16.389069]}},{"type":"Feature","properties":{"codigo":"RDA-2"},"geometry":{"type":"Point","coordinates":[-71.5664296,-16.389052]}},{"type":"Feature","properties":{"codigo":"RDB"},"geometry":{"type":"Point","coordinates":[-71.5593735,-16.3893062]}},{"type":"Feature","properties":{"codigo":"RDA-2"},"geometry":{"type":"Point","coordinates":[-71.5555367,-16.3891005]}},{"type":"Feature","properties":{"codigo":"ZRE-PN"},"geometry":{"type":"Point","coordinates":[-71.6370446,-16.3894609]}},{"type":"Feature","properties":{"codigo":"RDA-2"},"geometry":{"type":"Point","coordinates":[-71.5634358,-16.390035]}},{"type":"Feature","properties":{"codigo":"CS"},"geometry":{"type":"Point","coordinates":[-71.5159608,-16.3903351]}},{"type":"Feature","properties":{"codigo":"ZRE-RI2"},"geometry":{"type":"Point","coordinates":[-71.5017406,-16.390589]}},{"type":"Feature","properties":{"codigo":"ZRE-RI1"},"geometry":{"type":"Point","coordinates":[-71.4801167,-16.3915183]}},{"type":"Feature","properties":{"codigo":"RDA-2"},"geometry":{"type":"Point","coordinates":[-71.5594378,-16.3908619]}},{"type":"Feature","properties":{"codigo":"RDA-2"},"geometry":{"type":"Point","coordinates":[-71.5113606,-16.3914839]}},{"type":"Feature","properties":{"codigo":"I-1"},"geometry":{"type":"Point","coordinates":[-71.5839713,-16.3909613]}},{"type":"Feature","properties":{"codigo":"RDA-1"},"geometry":{"type":"Point","coordinates":[-71.5525626,-16.3915975]}},{"type":"Feature","properties":{"codigo":"RDA-1"},"geometry":{"type":"Point","coordinates":[-71.5214724,-16.3916573]}},{"type":"Feature","properties":{"codigo":"OU1"},"geometry":{"type":"Point","coordinates":[-71.4881443,-16.3922648]}},{"type":"Feature","properties":{"codigo":"ZRE-PP"},"geometry":{"type":"Point","coordinates":[-71.5613507,-16.3925002]}},{"type":"Feature","properties":{"codigo":"RDA-1"},"geometry":{"type":"Point","coordinates":[-71.5581285,-16.3923711]}},{"type":"Feature","properties":{"codigo":"RDA-2"},"geometry":{"type":"Point","coordinates":[-71.554474,-16.3928152]}},{"type":"Feature","properties":{"codigo":"RDM-2"},"geometry":{"type":"Point","coordinates":[-71.5131518,-16.3935447]}},{"type":"Feature","properties":{"codigo":"RDB"},"geometry":{"type":"Point","coordinates":[-71.4968679,-16.3929396]}},{"type":"Feature","properties":{"codigo":"EA"},"geometry":{"type":"Point","coordinates":[-71.6609802,-16.3921667]}},{"type":"Feature","properties":{"codigo":"ZR"},"geometry":{"type":"Point","coordinates":[-71.5736967,-16.3933168]}},{"type":"Feature","properties":{"codigo":"ZA"},"geometry":{"type":"Point","coordinates":[-71.6324107,-16.3931995]}},{"type":"Feature","properties":{"codigo":"CIn"},"geometry":{"type":"Point","coordinates":[-71.582623,-16.3941748]}},{"type":"Feature","properties":{"codigo":"RDA-1"},"geometry":{"type":"Point","coordinates":[-71.5166803,-16.3951431]}},{"type":"Feature","properties":{"codigo":"ZR"},"geometry":{"type":"Point","coordinates":[-71.6464951,-16.3939691]}},{"type":"Feature","properties":{"codigo":"RDM-2"},"geometry":{"type":"Point","coordinates":[-71.5704918,-16.3947863]}},{"type":"Feature","properties":{"codigo":"RDA-2"},"geometry":{"type":"Point","coordinates":[-71.5517406,-16.3953934]}},{"type":"Feature","properties":{"codigo":"ZRE-RI2"},"geometry":{"type":"Point","coordinates":[-71.4665613,-16.3964735]}},{"type":"Feature","properties":{"codigo":"CS"},"geometry":{"type":"Point","coordinates":[-71.5760872,-16.3964424]}},{"type":"Feature","properties":{"codigo":"ZA"},"geometry":{"type":"Point","coordinates":[-71.5643455,-16.3963126]}},{"type":"Feature","properties":{"codigo":"RDM-2"},"geometry":{"type":"Point","coordinates":[-71.5570727,-16.3966115]}},{"type":"Feature","properties":{"codigo":"CS"},"geometry":{"type":"Point","coordinates":[-71.5133481,-16.3972653]}},{"type":"Feature","properties":{"codigo":"RDB"},"geometry":{"type":"Point","coordinates":[-71.4890316,-16.3969658]}},{"type":"Feature","properties":{"codigo":"ZRE-CH"},"geometry":{"type":"Point","coordinates":[-71.5322547,-16.3973748]}},{"type":"Feature","properties":{"codigo":"I-1"},"geometry":{"type":"Point","coordinates":[-71.5850164,-16.3975105]}},{"type":"Feature","properties":{"codigo":"I1R"},"geometry":{"type":"Point","coordinates":[-71.5794867,-16.397873]}},{"type":"Feature","properties":{"codigo":"RDA-1"},"geometry":{"type":"Point","coordinates":[-71.5197977,-16.3986604]}},{"type":"Feature","properties":{"codigo":"RDM-1"},"geometry":{"type":"Point","coordinates":[-71.4964288,-16.3994862]}},{"type":"Feature","properties":{"codigo":"CS"},"geometry":{"type":"Point","coordinates":[-71.549044,-16.3994434]}},{"type":"Feature","properties":{"codigo":"RDA-1"},"geometry":{"type":"Point","coordinates":[-71.5143918,-16.4001764]}},{"type":"Feature","properties":{"codigo":"CZ"},"geometry":{"type":"Point","coordinates":[-71.5030352,-16.4003962]}},{"type":"Feature","properties":{"codigo":"ZR"},"geometry":{"type":"Point","coordinates":[-71.5622381,-16.4001031]}},{"type":"Feature","properties":{"codigo":"RDA-1"},"geometry":{"type":"Point","coordinates":[-71.5262841,-16.4015271]}},{"type":"Feature","properties":{"codigo":"I1R"},"geometry":{"type":"Point","coordinates":[-71.5079595,-16.4015574]}},{"type":"Feature","properties":{"codigo":"RDA-1"},"geometry":{"type":"Point","coordinates":[-71.5473579,-16.4018405]}},{"type":"Feature","properties":{"codigo":"CZ"},"geometry":{"type":"Point","coordinates":[-71.5177471,-16.4024289]}},{"type":"Feature","properties":{"codigo":"RDA-1"},"geometry":{"type":"Point","coordinates":[-71.5210985,-16.40323]}},{"type":"Feature","properties":{"codigo":"OU1"},"geometry":{"type":"Point","coordinates":[-71.5086641,-16.4037995]}},{"type":"Feature","properties":{"codigo":"ZR"},"geometry":{"type":"Point","coordinates":[-71.5483628,-16.4037423]}},{"type":"Feature","properties":{"codigo":"I-1"},"geometry":{"type":"Point","coordinates":[-71.5871033,-16.4037525]}},{"type":"Feature","properties":{"codigo":"ZRE-PA"},"geometry":{"type":"Point","coordinates":[-71.5605878,-16.4046873]}},{"type":"Feature","properties":{"codigo":"ZA"},"geometry":{"type":"Point","coordinates":[-71.5582287,-16.4050736]}},{"type":"Feature","properties":{"codigo":"RDM-2"},"geometry":{"type":"Point","coordinates":[-71.5549365,-16.4048823]}},{"type":"Feature","properties":{"codigo":"RDA-1"},"geometry":{"type":"Point","coordinates":[-71.5301823,-16.4047403]}},{"type":"Feature","properties":{"codigo":"CZ"},"geometry":{"type":"Point","coordinates":[-71.5278886,-16.4048521]}},{"type":"Feature","properties":{"codigo":"ZRE-RI1"},"geometry":{"type":"Point","coordinates":[-71.4705124,-16.405682]}},{"type":"Feature","properties":{"codigo":"CIn"},"geometry":{"type":"Point","coordinates":[-71.5798536,-16.4055663]}},{"type":"Feature","properties":{"codigo":"ZRE-PA"},"geometry":{"type":"Point","coordinates":[-71.56158,-16.4055796]}},{"type":"Feature","properties":{"codigo":"RDA-1"},"geometry":{"type":"Point","coordinates":[-71.5252532,-16.4060616]}},{"type":"Feature","properties":{"codigo":"RDM-2"},"geometry":{"type":"Point","coordinates":[-71.5037327,-16.4066558]}},{"type":"Feature","properties":{"codigo":"CIn"},"geometry":{"type":"Point","coordinates":[-71.5966274,-16.406958]}},{"type":"Feature","properties":{"codigo":"CIn"},"geometry":{"type":"Point","coordinates":[-71.5748822,-16.4069523]}},{"type":"Feature","properties":{"codigo":"RDM-1"},"geometry":{"type":"Point","coordinates":[-71.569627,-16.4069115]}},{"type":"Feature","properties":{"codigo":"ZRE-PA"},"geometry":{"type":"Point","coordinates":[-71.5673779,-16.4074018]}},{"type":"Feature","properties":{"codigo":"RDM-2"},"geometry":{"type":"Point","coordinates":[-71.549405,-16.4067794]}},{"type":"Feature","properties":{"codigo":"OU2"},"geometry":{"type":"Point","coordinates":[-71.5201535,-16.4076793]}},{"type":"Feature","properties":{"codigo":"CS"},"geometry":{"type":"Point","coordinates":[-71.508997,-16.4079812]}},{"type":"Feature","properties":{"codigo":"RDB"},"geometry":{"type":"Point","coordinates":[-71.4809376,-16.4081883]}},{"type":"Feature","properties":{"codigo":"RDM-2"},"geometry":{"type":"Point","coordinates":[-71.5165056,-16.4086696]}},{"type":"Feature","properties":{"codigo":"RDM-2"},"geometry":{"type":"Point","coordinates":[-71.5502843,-16.4090403]}},{"type":"Feature","properties":{"codigo":"OU2"},"geometry":{"type":"Point","coordinates":[-71.5350315,-16.4090357]}},{"type":"Feature","properties":{"codigo":"RDM-2"},"geometry":{"type":"Point","coordinates":[-71.5252964,-16.4094054]}},{"type":"Feature","properties":{"codigo":"RDM-2"},"geometry":{"type":"Point","coordinates":[-71.5098096,-16.4098645]}},{"type":"Feature","properties":{"codigo":"RDM-2"},"geometry":{"type":"Point","coordinates":[-71.5006823,-16.4100785]}},{"type":"Feature","properties":{"codigo":"RDM-1"},"geometry":{"type":"Point","coordinates":[-71.4920979,-16.4101595]}},{"type":"Feature","properties":{"codigo":"I1R"},"geometry":{"type":"Point","coordinates":[-71.5849565,-16.4094997]}},{"type":"Feature","properties":{"codigo":"RDM-1"},"geometry":{"type":"Point","coordinates":[-71.5685077,-16.4096174]}},{"type":"Feature","properties":{"codigo":"CZ"},"geometry":{"type":"Point","coordinates":[-71.5330319,-16.4099852]}},{"type":"Feature","properties":{"codigo":"ZR"},"geometry":{"type":"Point","coordinates":[-71.5705609,-16.4100339]}},{"type":"Feature","properties":{"codigo":"I-2"},"geometry":{"type":"Point","coordinates":[-71.5550779,-16.4107067]}},{"type":"Feature","properties":{"codigo":"RDA-1"},"geometry":{"type":"Point","coordinates":[-71.5522019,-16.4107206]}},{"type":"Feature","properties":{"codigo":"OU1"},"geometry":{"type":"Point","coordinates":[-71.5324232,-16.4112125]}},{"type":"Feature","properties":{"codigo":"CZ"},"geometry":{"type":"Point","coordinates":[-71.5208434,-16.4110574]}},{"type":"Feature","properties":{"codigo":"ZR"},"geometry":{"type":"Point","coordinates":[-71.4891546,-16.411772]}},{"type":"Feature","properties":{"codigo":"RDM-1"},"geometry":{"type":"Point","coordinates":[-71.5813409,-16.4112267]}},{"type":"Feature","properties":{"codigo":"RDM-2"},"geometry":{"type":"Point","coordinates":[-71.5309099,-16.4121352]}},{"type":"Feature","properties":{"codigo":"I1R"},"geometry":{"type":"Point","coordinates":[-71.5085319,-16.4122144]}},{"type":"Feature","properties":{"codigo":"CZ"},"geometry":{"type":"Point","coordinates":[-71.4966537,-16.4125663]}},{"type":"Feature","properties":{"codigo":"ZR"},"geometry":{"type":"Point","coordinates":[-71.4910358,-16.4123386]}},{"type":"Feature","properties":{"codigo":"RDA-1"},"geometry":{"type":"Point","coordinates":[-71.5384093,-16.4124232]}},{"type":"Feature","properties":{"codigo":"CZ"},"geometry":{"type":"Point","coordinates":[-71.5122819,-16.4129057]}},{"type":"Feature","properties":{"codigo":"CS"},"geometry":{"type":"Point","coordinates":[-71.5013294,-16.4132889]}},{"type":"Feature","properties":{"codigo":"I-2"},"geometry":{"type":"Point","coordinates":[-71.5807536,-16.4129586]}},{"type":"Feature","properties":{"codigo":"RDM-1"},"geometry":{"type":"Point","coordinates":[-71.5766227,-16.4136403]}},{"type":"Feature","properties":{"codigo":"ZRE-PA"},"geometry":{"type":"Point","coordinates":[-71.5718191,-16.4137413]}},{"type":"Feature","properties":{"codigo":"I-1"},"geometry":{"type":"Point","coordinates":[-71.5070745,-16.4140828]}},{"type":"Feature","properties":{"codigo":"CE"},"geometry":{"type":"Point","coordinates":[-71.5058447,-16.4136557]}},{"type":"Feature","properties":{"codigo":"RDB"},"geometry":{"type":"Point","coordinates":[-71.4845911,-16.4144763]}},{"type":"Feature","properties":{"codigo":"RDM-2"},"geometry":{"type":"Point","coordinates":[-71.5038194,-16.4151312]}},{"type":"Feature","properties":{"codigo":"ZR"},"geometry":{"type":"Point","coordinates":[-71.5010105,-16.415333]}},{"type":"Feature","properties":{"codigo":"RDB"},"geometry":{"type":"Point","coordinates":[-71.5942898,-16.4150001]}},{"type":"Feature","properties":{"codigo":"RDM-1"},"geometry":{"type":"Point","coordinates":[-71.5615232,-16.4153605]}},{"type":"Feature","properties":{"codigo":"CZ"},"geometry":{"type":"Point","coordinates":[-71.5417712,-16.4151378]}},{"type":"Feature","properties":{"codigo":"RDA-1"},"geometry":{"type":"Point","coordinates":[-71.4999364,-16.4165026]}},{"type":"Feature","properties":{"codigo":"I1R"},"geometry":{"type":"Point","coordinates":[-71.5089165,-16.4167109]}},{"type":"Feature","properties":{"codigo":"RDM-1"},"geometry":{"type":"Point","coordinates":[-71.520316,-16.4169109]}},{"type":"Feature","properties":{"codigo":"RDM-1"},"geometry":{"type":"Point","coordinates":[-71.5502006,-16.4176647]}},{"type":"Feature","properties":{"codigo":"I-2"},"geometry":{"type":"Point","coordinates":[-71.5451079,-16.4181472]}},{"type":"Feature","properties":{"codigo":"RDM-2"},"geometry":{"type":"Point","coordinates":[-71.537995,-16.417434]}},{"type":"Feature","properties":{"codigo":"RDA-1"},"geometry":{"type":"Point","coordinates":[-71.5182159,-16.4179667]}},{"type":"Feature","properties":{"codigo":"CZ"},"geometry":{"type":"Point","coordinates":[-71.5142844,-16.4178246]}},{"type":"Feature","properties":{"codigo":"I-1"},"geometry":{"type":"Point","coordinates":[-71.5081538,-16.4183817]}},{"type":"Feature","properties":{"codigo":"CIn"},"geometry":{"type":"Point","coordinates":[-71.505226,-16.4174912]}},{"type":"Feature","properties":{"codigo":"RDM-1"},"geometry":{"type":"Point","coordinates":[-71.4926807,-16.4182716]}},{"type":"Feature","properties":{"codigo":"OU1"},"geometry":{"type":"Point","coordinates":[-71.5626764,-16.4185644]}},{"type":"Feature","properties":{"codigo":"CZ"},"geometry":{"type":"Point","coordinates":[-71.5258922,-16.4189893]}},{"type":"Feature","properties":{"codigo":"I1R"},"geometry":{"type":"Point","coordinates":[-71.5063803,-16.4194545]}},{"type":"Feature","properties":{"codigo":"CIn"},"geometry":{"type":"Point","coordinates":[-71.4887567,-16.4195801]}},{"type":"Feature","properties":{"codigo":"ZR"},"geometry":{"type":"Point","coordinates":[-71.4789222,-16.419381]}},{"type":"Feature","properties":{"codigo":"RDB"},"geometry":{"type":"Point","coordinates":[-71.5592332,-16.4202259]}},{"type":"Feature","properties":{"codigo":"I-2"},"geometry":{"type":"Point","coordinates":[-71.5531345,-16.4204053]}},{"type":"Feature","properties":{"codigo":"ZR"},"geometry":{"type":"Point","coordinates":[-71.5345661,-16.4202308]}},{"type":"Feature","properties":{"codigo":"ZR"},"geometry":{"type":"Point","coordinates":[-71.5218577,-16.4199001]}},{"type":"Feature","properties":{"codigo":"CE"},"geometry":{"type":"Point","coordinates":[-71.505669,-16.4203464]}},{"type":"Feature","properties":{"codigo":"ZRE-PP"},"geometry":{"type":"Point","coordinates":[-71.4770649,-16.4209805]}},{"type":"Feature","properties":{"codigo":"OU2"},"geometry":{"type":"Point","coordinates":[-71.4751458,-16.4205614]}},{"type":"Feature","properties":{"codigo":"ZRE-PA"},"geometry":{"type":"Point","coordinates":[-71.5882948,-16.4205425]}},{"type":"Feature","properties":{"codigo":"RDM-2"},"geometry":{"type":"Point","coordinates":[-71.5691781,-16.4208405]}},{"type":"Feature","properties":{"codigo":"ZR"},"geometry":{"type":"Point","coordinates":[-71.5577373,-16.420812]}},{"type":"Feature","properties":{"codigo":"I-2"},"geometry":{"type":"Point","coordinates":[-71.5488503,-16.4210674]}},{"type":"Feature","properties":{"codigo":"CZ"},"geometry":{"type":"Point","coordinates":[-71.53122,-16.4215121]}},{"type":"Feature","properties":{"codigo":"CS"},"geometry":{"type":"Point","coordinates":[-71.5182149,-16.4215845]}},{"type":"Feature","properties":{"codigo":"RDM-2"},"geometry":{"type":"Point","coordinates":[-71.5036874,-16.4218424]}},{"type":"Feature","properties":{"codigo":"ZRE-RI1"},"geometry":{"type":"Point","coordinates":[-71.4798943,-16.4221039]}},{"type":"Feature","properties":{"codigo":"ZR"},"geometry":{"type":"Point","coordinates":[-71.5637428,-16.4218114]}},{"type":"Feature","properties":{"codigo":"CZ"},"geometry":{"type":"Point","coordinates":[-71.5527731,-16.4216507]}},{"type":"Feature","properties":{"codigo":"RDM-2"},"geometry":{"type":"Point","coordinates":[-71.5284483,-16.4223027]}},{"type":"Feature","properties":{"codigo":"RDM-2"},"geometry":{"type":"Point","coordinates":[-71.5126687,-16.4220926]}},{"type":"Feature","properties":{"codigo":"OU1"},"geometry":{"type":"Point","coordinates":[-71.5072453,-16.4223047]}},{"type":"Feature","properties":{"codigo":"RDM-2"},"geometry":{"type":"Point","coordinates":[-71.4878973,-16.422535]}},{"type":"Feature","properties":{"codigo":"OU2"},"geometry":{"type":"Point","coordinates":[-71.5541247,-16.422812]}},{"type":"Feature","properties":{"codigo":"CZ"},"geometry":{"type":"Point","coordinates":[-71.5387311,-16.4226623]}},{"type":"Feature","properties":{"codigo":"RDM-2"},"geometry":{"type":"Point","coordinates":[-71.5328786,-16.4228172]}},{"type":"Feature","properties":{"codigo":"RDA-2"},"geometry":{"type":"Point","coordinates":[-71.5198306,-16.4232056]}},{"type":"Feature","properties":{"codigo":"ZRE-RI2"},"geometry":{"type":"Point","coordinates":[-71.485231,-16.4236393]}},{"type":"Feature","properties":{"codigo":"RDB"},"geometry":{"type":"Point","coordinates":[-71.587857,-16.4228615]}},{"type":"Feature","properties":{"codigo":"RDB"},"geometry":{"type":"Point","coordinates":[-71.5644601,-16.423338]}},{"type":"Feature","properties":{"codigo":"RDM-2"},"geometry":{"type":"Point","coordinates":[-71.5558937,-16.423106]}},{"type":"Feature","properties":{"codigo":"RDM-1"},"geometry":{"type":"Point","coordinates":[-71.5496939,-16.4239176]}},{"type":"Feature","properties":{"codigo":"OU2"},"geometry":{"type":"Point","coordinates":[-71.5454036,-16.4241169]}},{"type":"Feature","properties":{"codigo":"ZR"},"geometry":{"type":"Point","coordinates":[-71.5333935,-16.4239047]}},{"type":"Feature","properties":{"codigo":"CZ"},"geometry":{"type":"Point","coordinates":[-71.5061764,-16.4244839]}},{"type":"Feature","properties":{"codigo":"RDM-1"},"geometry":{"type":"Point","coordinates":[-71.5660847,-16.4242225]}},{"type":"Feature","properties":{"codigo":"RDB"},"geometry":{"type":"Point","coordinates":[-71.6635787,-16.4246059]}},{"type":"Feature","properties":{"codigo":"RDA-2"},"geometry":{"type":"Point","coordinates":[-71.5631792,-16.4253307]}},{"type":"Feature","properties":{"codigo":"ZR"},"geometry":{"type":"Point","coordinates":[-71.5421484,-16.425187]}},{"type":"Feature","properties":{"codigo":"OU1"},"geometry":{"type":"Point","coordinates":[-71.5234849,-16.4260643]}},{"type":"Feature","properties":{"codigo":"RDM-2"},"geometry":{"type":"Point","coordinates":[-71.51949,-16.4255234]}},{"type":"Feature","properties":{"codigo":"RDB"},"geometry":{"type":"Point","coordinates":[-71.6697174,-16.4257687]}},{"type":"Feature","properties":{"codigo":"ZRE-PP"},"geometry":{"type":"Point","coordinates":[-71.5674801,-16.4262456]}},{"type":"Feature","properties":{"codigo":"I-2"},"geometry":{"type":"Point","coordinates":[-71.5591203,-16.4265581]}},{"type":"Feature","properties":{"codigo":"CZ"},"geometry":{"type":"Point","coordinates":[-71.5569141,-16.4267112]}},{"type":"Feature","properties":{"codigo":"CZ"},"geometry":{"type":"Point","coordinates":[-71.5388944,-16.4268459]}},{"type":"Feature","properties":{"codigo":"CZ"},"geometry":{"type":"Point","coordinates":[-71.5300121,-16.4275211]}},{"type":"Feature","properties":{"codigo":"CS"},"geometry":{"type":"Point","coordinates":[-71.5188583,-16.4275501]}},{"type":"Feature","properties":{"codigo":"RDM-2"},"geometry":{"type":"Point","coordinates":[-71.4993303,-16.4270475]}},{"type":"Feature","properties":{"codigo":"OU1"},"geometry":{"type":"Point","coordinates":[-71.6682464,-16.4265235]}},{"type":"Feature","properties":{"codigo":"RDB"},"geometry":{"type":"Point","coordinates":[-71.5880015,-16.4271923]}},{"type":"Feature","properties":{"codigo":"RDM-2"},"geometry":{"type":"Point","coordinates":[-71.5741933,-16.4277197]}},{"type":"Feature","properties":{"codigo":"RDM-1"},"geometry":{"type":"Point","coordinates":[-71.567721,-16.4276939]}},{"type":"Feature","properties":{"codigo":"RDB"},"geometry":{"type":"Point","coordinates":[-71.5476332,-16.428023]}},{"type":"Feature","properties":{"codigo":"ZR"},"geometry":{"type":"Point","coordinates":[-71.5413528,-16.4276785]}},{"type":"Feature","properties":{"codigo":"RDA-2"},"geometry":{"type":"Point","coordinates":[-71.526649,-16.4280875]}},{"type":"Feature","properties":{"codigo":"ZRE-PA"},"geometry":{"type":"Point","coordinates":[-71.6079379,-16.4278498]}},{"type":"Feature","properties":{"codigo":"RDB"},"geometry":{"type":"Point","coordinates":[-71.5491647,-16.4284881]}},{"type":"Feature","properties":{"codigo":"RDM-2"},"geometry":{"type":"Point","coordinates":[-71.5443725,-16.4286094]}},{"type":"Feature","properties":{"codigo":"OU1"},"geometry":{"type":"Point","coordinates":[-71.5046298,-16.4290666]}},{"type":"Feature","properties":{"codigo":"RDB"},"geometry":{"type":"Point","coordinates":[-71.6701779,-16.4291698]}},{"type":"Feature","properties":{"codigo":"RDB"},"geometry":{"type":"Point","coordinates":[-71.6325368,-16.4284679]}},{"type":"Feature","properties":{"codigo":"RDB"},"geometry":{"type":"Point","coordinates":[-71.6310256,-16.4295174]}},{"type":"Feature","properties":{"codigo":"RDM-1"},"geometry":{"type":"Point","coordinates":[-71.5957171,-16.4305673]}},{"type":"Feature","properties":{"codigo":"ZRE-PP"},"geometry":{"type":"Point","coordinates":[-71.5871673,-16.4302943]}},{"type":"Feature","properties":{"codigo":"ZR"},"geometry":{"type":"Point","coordinates":[-71.5676597,-16.4296927]}},{"type":"Feature","properties":{"codigo":"ZR"},"geometry":{"type":"Point","coordinates":[-71.5641946,-16.429672]}},{"type":"Feature","properties":{"codigo":"ZM"},"geometry":{"type":"Point","coordinates":[-71.5621504,-16.4311272]}},{"type":"Feature","properties":{"codigo":"ZR"},"geometry":{"type":"Point","coordinates":[-71.5565315,-16.4302493]}},{"type":"Feature","properties":{"codigo":"RDB"},"geometry":{"type":"Point","coordinates":[-71.5512331,-16.4300194]}},{"type":"Feature","properties":{"codigo":"RDB"},"geometry":{"type":"Point","coordinates":[-71.54899,-16.4301308]}},{"type":"Feature","properties":{"codigo":"RDM-2"},"geometry":{"type":"Point","coordinates":[-71.5087795,-16.4297742]}},{"type":"Feature","properties":{"codigo":"ZA"},"geometry":{"type":"Point","coordinates":[-71.506329,-16.43075]}},{"type":"Feature","properties":{"codigo":"RDM-1"},"geometry":{"type":"Point","coordinates":[-71.4851774,-16.4314224]}},{"type":"Feature","properties":{"codigo":"OU1"},"geometry":{"type":"Point","coordinates":[-71.4785169,-16.4303444]}},{"type":"Feature","properties":{"codigo":"RDB"},"geometry":{"type":"Point","coordinates":[-71.5939985,-16.4324604]}},{"type":"Feature","properties":{"codigo":"RDM-2"},"geometry":{"type":"Point","coordinates":[-71.5624566,-16.433374]}},{"type":"Feature","properties":{"codigo":"OU2"},"geometry":{"type":"Point","coordinates":[-71.5603627,-16.4315697]}},{"type":"Feature","properties":{"codigo":"RDB"},"geometry":{"type":"Point","coordinates":[-71.5485522,-16.4316504]}},{"type":"Feature","properties":{"codigo":"OU2"},"geometry":{"type":"Point","coordinates":[-71.5450134,-16.4326399]}},{"type":"Feature","properties":{"codigo":"RDM-2"},"geometry":{"type":"Point","coordinates":[-71.5387592,-16.4326526]}},{"type":"Feature","properties":{"codigo":"OU1"},"geometry":{"type":"Point","coordinates":[-71.5346901,-16.4331225]}},{"type":"Feature","properties":{"codigo":"RDM-2"},"geometry":{"type":"Point","coordinates":[-71.5222972,-16.4319678]}},{"type":"Feature","properties":{"codigo":"RDM-2"},"geometry":{"type":"Point","coordinates":[-71.5119824,-16.4331223]}},{"type":"Feature","properties":{"codigo":"OU1"},"geometry":{"type":"Point","coordinates":[-71.5102735,-16.4341103]}},{"type":"Feature","properties":{"codigo":"ZRE-PP"},"geometry":{"type":"Point","coordinates":[-71.5048832,-16.4338382]}},{"type":"Feature","properties":{"codigo":"RDM-1"},"geometry":{"type":"Point","coordinates":[-71.4970704,-16.4326693]}},{"type":"Feature","properties":{"codigo":"RDB"},"geometry":{"type":"Point","coordinates":[-71.5822486,-16.4337832]}},{"type":"Feature","properties":{"codigo":"RDM-1"},"geometry":{"type":"Point","coordinates":[-71.5645985,-16.4338526]}},{"type":"Feature","properties":{"codigo":"RDB"},"geometry":{"type":"Point","coordinates":[-71.5516108,-16.4339058]}},{"type":"Feature","properties":{"codigo":"RDM-2"},"geometry":{"type":"Point","coordinates":[-71.571591,-16.4353023]}},{"type":"Feature","properties":{"codigo":"ZRE-PA"},"geometry":{"type":"Point","coordinates":[-71.5595734,-16.4353862]}},{"type":"Feature","properties":{"codigo":"CZ"},"geometry":{"type":"Point","coordinates":[-71.5574377,-16.4350758]}},{"type":"Feature","properties":{"codigo":"RDB"},"geometry":{"type":"Point","coordinates":[-71.5462517,-16.4357167]}},{"type":"Feature","properties":{"codigo":"ZA"},"geometry":{"type":"Point","coordinates":[-71.4961747,-16.4359402]}},{"type":"Feature","properties":{"codigo":"ZRE-RI1"},"geometry":{"type":"Point","coordinates":[-71.5687065,-16.4363472]}},{"type":"Feature","properties":{"codigo":"RDB"},"geometry":{"type":"Point","coordinates":[-71.5491407,-16.4366701]}},{"type":"Feature","properties":{"codigo":"CS"},"geometry":{"type":"Point","coordinates":[-71.5454536,-16.4366308]}},{"type":"Feature","properties":{"codigo":"CZ"},"geometry":{"type":"Point","coordinates":[-71.5194758,-16.4368183]}},{"type":"Feature","properties":{"codigo":"ZR"},"geometry":{"type":"Point","coordinates":[-71.5632202,-16.4367929]}},{"type":"Feature","properties":{"codigo":"RDA-2"},"geometry":{"type":"Point","coordinates":[-71.5600861,-16.4370626]}},{"type":"Feature","properties":{"codigo":"RDM-1"},"geometry":{"type":"Point","coordinates":[-71.5425059,-16.4375499]}},{"type":"Feature","properties":{"codigo":"CZ"},"geometry":{"type":"Point","coordinates":[-71.5703513,-16.4376942]}},{"type":"Feature","properties":{"codigo":"RDA-1"},"geometry":{"type":"Point","coordinates":[-71.5621431,-16.4377105]}},{"type":"Feature","properties":{"codigo":"RDB"},"geometry":{"type":"Point","coordinates":[-71.5456753,-16.4383107]}},{"type":"Feature","properties":{"codigo":"OU2"},"geometry":{"type":"Point","coordinates":[-71.5365429,-16.43819]}},{"type":"Feature","properties":{"codigo":"ZR"},"geometry":{"type":"Point","coordinates":[-71.5243608,-16.4382319]}},{"type":"Feature","properties":{"codigo":"RDB"},"geometry":{"type":"Point","coordinates":[-71.5067361,-16.4386958]}},{"type":"Feature","properties":{"codigo":"RDB"},"geometry":{"type":"Point","coordinates":[-71.5467796,-16.4394331]}},{"type":"Feature","properties":{"codigo":"I1R"},"geometry":{"type":"Point","coordinates":[-71.541984,-16.439344]}},{"type":"Feature","properties":{"codigo":"RDM-2"},"geometry":{"type":"Point","coordinates":[-71.5328769,-16.4394963]}},{"type":"Feature","properties":{"codigo":"ZR"},"geometry":{"type":"Point","coordinates":[-71.5142852,-16.4393626]}},{"type":"Feature","properties":{"codigo":"ZA"},"geometry":{"type":"Point","coordinates":[-71.5013228,-16.4397279]}},{"type":"Feature","properties":{"codigo":"RDM-2"},"geometry":{"type":"Point","coordinates":[-71.5243849,-16.4400615]}},{"type":"Feature","properties":{"codigo":"RDB"},"geometry":{"type":"Point","coordinates":[-71.5971221,-16.4395726]}},{"type":"Feature","properties":{"codigo":"RDB"},"geometry":{"type":"Point","coordinates":[-71.5893427,-16.4396057]}},{"type":"Feature","properties":{"codigo":"RDM-1"},"geometry":{"type":"Point","coordinates":[-71.5466175,-16.4403394]}},{"type":"Feature","properties":{"codigo":"RDM-2"},"geometry":{"type":"Point","coordinates":[-71.5398616,-16.4403373]}},{"type":"Feature","properties":{"codigo":"RDB"},"geometry":{"type":"Point","coordinates":[-71.5432231,-16.4407803]}},{"type":"Feature","properties":{"codigo":"RDB"},"geometry":{"type":"Point","coordinates":[-71.5830052,-16.4415558]}},{"type":"Feature","properties":{"codigo":"ZAQ"},"geometry":{"type":"Point","coordinates":[-71.563754,-16.442339]}},{"type":"Feature","properties":{"codigo":"OU1"},"geometry":{"type":"Point","coordinates":[-71.5581721,-16.4423441]}},{"type":"Feature","properties":{"codigo":"RDM-2"},"geometry":{"type":"Point","coordinates":[-71.5154389,-16.4426089]}},{"type":"Feature","properties":{"codigo":"RDM-2"},"geometry":{"type":"Point","coordinates":[-71.6221948,-16.4420577]}},{"type":"Feature","properties":{"codigo":"ZRE-PP"},"geometry":{"type":"Point","coordinates":[-71.6108251,-16.4427885]}},{"type":"Feature","properties":{"codigo":"RDB"},"geometry":{"type":"Point","coordinates":[-71.5933678,-16.4423953]}},{"type":"Feature","properties":{"codigo":"RDB"},"geometry":{"type":"Point","coordinates":[-71.5863081,-16.4424825]}},{"type":"Feature","properties":{"codigo":"RDM-1"},"geometry":{"type":"Point","coordinates":[-71.5792497,-16.4426326]}},{"type":"Feature","properties":{"codigo":"CS"},"geometry":{"type":"Point","coordinates":[-71.5563874,-16.4428286]}},{"type":"Feature","properties":{"codigo":"RDA-1"},"geometry":{"type":"Point","coordinates":[-71.5491642,-16.4434424]}},{"type":"Feature","properties":{"codigo":"RDM-1"},"geometry":{"type":"Point","coordinates":[-71.5446763,-16.44356]}},{"type":"Feature","properties":{"codigo":"ZR"},"geometry":{"type":"Point","coordinates":[-71.5324078,-16.4436875]}},{"type":"Feature","properties":{"codigo":"CS"},"geometry":{"type":"Point","coordinates":[-71.5137541,-16.4441014]}},{"type":"Feature","properties":{"codigo":"RDM-2"},"geometry":{"type":"Point","coordinates":[-71.508431,-16.4433659]}},{"type":"Feature","properties":{"codigo":"RDB"},"geometry":{"type":"Point","coordinates":[-71.592537,-16.4438358]}},{"type":"Feature","properties":{"codigo":"RDB"},"geometry":{"type":"Point","coordinates":[-71.5865657,-16.4438254]}},{"type":"Feature","properties":{"codigo":"ZRE-RI1"},"geometry":{"type":"Point","coordinates":[-71.5738841,-16.4439395]}},{"type":"Feature","properties":{"codigo":"ZA"},"geometry":{"type":"Point","coordinates":[-71.5414837,-16.44444]}},{"type":"Feature","properties":{"codigo":"ZRE-PP"},"geometry":{"type":"Point","coordinates":[-71.5777432,-16.4443758]}},{"type":"Feature","properties":{"codigo":"ZRE-PA"},"geometry":{"type":"Point","coordinates":[-71.5396325,-16.4453669]}},{"type":"Feature","properties":{"codigo":"CZ"},"geometry":{"type":"Point","coordinates":[-71.5303519,-16.4453319]}},{"type":"Feature","properties":{"codigo":"RDM-1"},"geometry":{"type":"Point","coordinates":[-71.496302,-16.4458664]}},{"type":"Feature","properties":{"codigo":"RDB"},"geometry":{"type":"Point","coordinates":[-71.6060236,-16.4452459]}},{"type":"Feature","properties":{"codigo":"RDM-1"},"geometry":{"type":"Point","coordinates":[-71.6032328,-16.4451123]}},{"type":"Feature","properties":{"codigo":"RDM-1"},"geometry":{"type":"Point","coordinates":[-71.58073,-16.4458113]}},{"type":"Feature","properties":{"codigo":"RDB"},"geometry":{"type":"Point","coordinates":[-71.5765927,-16.4460936]}},{"type":"Feature","properties":{"codigo":"RDB"},"geometry":{"type":"Point","coordinates":[-71.5082263,-16.4461237]}},{"type":"Feature","properties":{"codigo":"ZR"},"geometry":{"type":"Point","coordinates":[-71.5377316,-16.4475142]}},{"type":"Feature","properties":{"codigo":"ZR"},"geometry":{"type":"Point","coordinates":[-71.6201017,-16.4468791]}},{"type":"Feature","properties":{"codigo":"RDM-1"},"geometry":{"type":"Point","coordinates":[-71.5944141,-16.4473039]}},{"type":"Feature","properties":{"codigo":"ZR"},"geometry":{"type":"Point","coordinates":[-71.5525763,-16.4477546]}},{"type":"Feature","properties":{"codigo":"RDB"},"geometry":{"type":"Point","coordinates":[-71.5422464,-16.447775]}},{"type":"Feature","properties":{"codigo":"RDM-2"},"geometry":{"type":"Point","coordinates":[-71.5663103,-16.4480285]}},{"type":"Feature","properties":{"codigo":"OU1"},"geometry":{"type":"Point","coordinates":[-71.6208571,-16.4479212]}},{"type":"Feature","properties":{"codigo":"RDM-1"},"geometry":{"type":"Point","coordinates":[-71.6177257,-16.4484231]}},{"type":"Feature","properties":{"codigo":"CS"},"geometry":{"type":"Point","coordinates":[-71.5903932,-16.4484263]}},{"type":"Feature","properties":{"codigo":"ZR"},"geometry":{"type":"Point","coordinates":[-71.5889833,-16.448654]}},{"type":"Feature","properties":{"codigo":"I-2"},"geometry":{"type":"Point","coordinates":[-71.5874824,-16.4488408]}},{"type":"Feature","properties":{"codigo":"ZR"},"geometry":{"type":"Point","coordinates":[-71.5634198,-16.4486738]}},{"type":"Feature","properties":{"codigo":"RDM-2"},"geometry":{"type":"Point","coordinates":[-71.5559666,-16.4486597]}},{"type":"Feature","properties":{"codigo":"RDB"},"geometry":{"type":"Point","coordinates":[-71.6134262,-16.4496125]}},{"type":"Feature","properties":{"codigo":"RDM-1"},"geometry":{"type":"Point","coordinates":[-71.5852895,-16.4494568]}},{"type":"Feature","properties":{"codigo":"ZAQ"},"geometry":{"type":"Point","coordinates":[-71.5642451,-16.4498626]}},{"type":"Feature","properties":{"codigo":"ZR"},"geometry":{"type":"Point","coordinates":[-71.5625466,-16.4502199]}},{"type":"Feature","properties":{"codigo":"RDB"},"geometry":{"type":"Point","coordinates":[-71.5609463,-16.4495033]}},{"type":"Feature","properties":{"codigo":"ZR"},"geometry":{"type":"Point","coordinates":[-71.5382253,-16.4502846]}},{"type":"Feature","properties":{"codigo":"RDA-1"},"geometry":{"type":"Point","coordinates":[-71.5312538,-16.4504531]}},{"type":"Feature","properties":{"codigo":"RDB"},"geometry":{"type":"Point","coordinates":[-71.4953584,-16.450505]}},{"type":"Feature","properties":{"codigo":"I1R"},"geometry":{"type":"Point","coordinates":[-71.6185574,-16.4503476]}},{"type":"Feature","properties":{"codigo":"RDM-2"},"geometry":{"type":"Point","coordinates":[-71.591016,-16.4507111]}},{"type":"Feature","properties":{"codigo":"RDM-1"},"geometry":{"type":"Point","coordinates":[-71.5348795,-16.4510612]}},{"type":"Feature","properties":{"codigo":"ZAQ"},"geometry":{"type":"Point","coordinates":[-71.4907577,-16.4518007]}},{"type":"Feature","properties":{"codigo":"I1R"},"geometry":{"type":"Point","coordinates":[-71.6220276,-16.4507248]}},{"type":"Feature","properties":{"codigo":"ZR"},"geometry":{"type":"Point","coordinates":[-71.6203062,-16.4507464]}},{"type":"Feature","properties":{"codigo":"ZR"},"geometry":{"type":"Point","coordinates":[-71.5947704,-16.4511904]}},{"type":"Feature","properties":{"codigo":"RDM-2"},"geometry":{"type":"Point","coordinates":[-71.5582995,-16.4520596]}},{"type":"Feature","properties":{"codigo":"ZR"},"geometry":{"type":"Point","coordinates":[-71.5538293,-16.4519038]}},{"type":"Feature","properties":{"codigo":"ZA"},"geometry":{"type":"Point","coordinates":[-71.4838738,-16.4523242]}},{"type":"Feature","properties":{"codigo":"RDA-1"},"geometry":{"type":"Point","coordinates":[-71.5485638,-16.4525358]}},{"type":"Feature","properties":{"codigo":"RDB"},"geometry":{"type":"Point","coordinates":[-71.589076,-16.4523545]}},{"type":"Feature","properties":{"codigo":"ZRE-PA"},"geometry":{"type":"Point","coordinates":[-71.4983058,-16.4534566]}},{"type":"Feature","properties":{"codigo":"RDB"},"geometry":{"type":"Point","coordinates":[-71.4915835,-16.4535788]}},{"type":"Feature","properties":{"codigo":"ZR"},"geometry":{"type":"Point","coordinates":[-71.5227137,-16.4541106]}},{"type":"Feature","properties":{"codigo":"ZRE-PP"},"geometry":{"type":"Point","coordinates":[-71.4950376,-16.4546735]}},{"type":"Feature","properties":{"codigo":"ZRE-RI2"},"geometry":{"type":"Point","coordinates":[-71.4731878,-16.455227]}},{"type":"Feature","properties":{"codigo":"OU2"},"geometry":{"type":"Point","coordinates":[-71.5917406,-16.4544037]}},{"type":"Feature","properties":{"codigo":"ZA"},"geometry":{"type":"Point","coordinates":[-71.564739,-16.4545258]}},{"type":"Feature","properties":{"codigo":"RDB"},"geometry":{"type":"Point","coordinates":[-71.5436713,-16.4550981]}},{"type":"Feature","properties":{"codigo":"RDM-1"},"geometry":{"type":"Point","coordinates":[-71.5306889,-16.455634]}},{"type":"Feature","properties":{"codigo":"RDB"},"geometry":{"type":"Point","coordinates":[-71.56007,-16.4558028]}},{"type":"Feature","properties":{"codigo":"OU1"},"geometry":{"type":"Point","coordinates":[-71.4948691,-16.4565264]}},{"type":"Feature","properties":{"codigo":"RDB"},"geometry":{"type":"Point","coordinates":[-71.6106775,-16.4559142]}},{"type":"Feature","properties":{"codigo":"ZRE-PP"},"geometry":{"type":"Point","coordinates":[-71.4996032,-16.4571851]}},{"type":"Feature","properties":{"codigo":"RDB"},"geometry":{"type":"Point","coordinates":[-71.6179154,-16.4560973]}},{"type":"Feature","properties":{"codigo":"ZRE-RI2"},"geometry":{"type":"Point","coordinates":[-71.5392749,-16.4572127]}},{"type":"Feature","properties":{"codigo":"ZA"},"geometry":{"type":"Point","coordinates":[-71.5347462,-16.4576041]}},{"type":"Feature","properties":{"codigo":"RDM-1"},"geometry":{"type":"Point","coordinates":[-71.5986433,-16.4572206]}},{"type":"Feature","properties":{"codigo":"RDM-1"},"geometry":{"type":"Point","coordinates":[-71.5750442,-16.4575331]}},{"type":"Feature","properties":{"codigo":"RDM-1"},"geometry":{"type":"Point","coordinates":[-71.5079074,-16.4585792]}},{"type":"Feature","properties":{"codigo":"RDB"},"geometry":{"type":"Point","coordinates":[-71.4931081,-16.4586087]}},{"type":"Feature","properties":{"codigo":"RDM-2"},"geometry":{"type":"Point","coordinates":[-71.5209235,-16.4589067]}},{"type":"Feature","properties":{"codigo":"RDM-2"},"geometry":{"type":"Point","coordinates":[-71.5279718,-16.4595579]}},{"type":"Feature","properties":{"codigo":"ZRE-RI1"},"geometry":{"type":"Point","coordinates":[-71.5996267,-16.4590592]}},{"type":"Feature","properties":{"codigo":"ZA"},"geometry":{"type":"Point","coordinates":[-71.5741795,-16.4597522]}},{"type":"Feature","properties":{"codigo":"RDB"},"geometry":{"type":"Point","coordinates":[-71.5488775,-16.4598934]}},{"type":"Feature","properties":{"codigo":"RDB"},"geometry":{"type":"Point","coordinates":[-71.5519688,-16.461286]}},{"type":"Feature","properties":{"codigo":"RDA-1"},"geometry":{"type":"Point","coordinates":[-71.5057254,-16.4617813]}},{"type":"Feature","properties":{"codigo":"ZRE-RI2"},"geometry":{"type":"Point","coordinates":[-71.5805308,-16.4620506]}},{"type":"Feature","properties":{"codigo":"CZ"},"geometry":{"type":"Point","coordinates":[-71.5085319,-16.4636407]}},{"type":"Feature","properties":{"codigo":"RDM-2"},"geometry":{"type":"Point","coordinates":[-71.5002426,-16.4642447]}},{"type":"Feature","properties":{"codigo":"RDM-1"},"geometry":{"type":"Point","coordinates":[-71.4943937,-16.4653661]}},{"type":"Feature","properties":{"codigo":"ZA"},"geometry":{"type":"Point","coordinates":[-71.5616355,-16.4654796]}},{"type":"Feature","properties":{"codigo":"RDB"},"geometry":{"type":"Point","coordinates":[-71.5404126,-16.4659485]}},{"type":"Feature","properties":{"codigo":"RDM-1"},"geometry":{"type":"Point","coordinates":[-71.5518305,-16.467345]}},{"type":"Feature","properties":{"codigo":"OU1"},"geometry":{"type":"Point","coordinates":[-71.5285916,-16.4670171]}},{"type":"Feature","properties":{"codigo":"ZRE-PP"},"geometry":{"type":"Point","coordinates":[-71.5266746,-16.4673978]}},{"type":"Feature","properties":{"codigo":"ZR"},"geometry":{"type":"Point","coordinates":[-71.5236898,-16.4672235]}},{"type":"Feature","properties":{"codigo":"RDA-2"},"geometry":{"type":"Point","coordinates":[-71.5112232,-16.4672682]}},{"type":"Feature","properties":{"codigo":"RDA-2"},"geometry":{"type":"Point","coordinates":[-71.506372,-16.4679994]}},{"type":"Feature","properties":{"codigo":"ZA"},"geometry":{"type":"Point","coordinates":[-71.4743688,-16.4676019]}},{"type":"Feature","properties":{"codigo":"RDA-1"},"geometry":{"type":"Point","coordinates":[-71.5146357,-16.4682158]}},{"type":"Feature","properties":{"codigo":"ZA"},"geometry":{"type":"Point","coordinates":[-71.5213339,-16.4687662]}},{"type":"Feature","properties":{"codigo":"ZR"},"geometry":{"type":"Point","coordinates":[-71.5003255,-16.4690393]}},{"type":"Feature","properties":{"codigo":"OU1"},"geometry":{"type":"Point","coordinates":[-71.4840484,-16.4694224]}},{"type":"Feature","properties":{"codigo":"RDB"},"geometry":{"type":"Point","coordinates":[-71.4651112,-16.4698145]}},{"type":"Feature","properties":{"codigo":"OU1"},"geometry":{"type":"Point","coordinates":[-71.5270618,-16.4700643]}},{"type":"Feature","properties":{"codigo":"ZRE-PP"},"geometry":{"type":"Point","coordinates":[-71.4844483,-16.4703221]}},{"type":"Feature","properties":{"codigo":"RDM-1"},"geometry":{"type":"Point","coordinates":[-71.4893295,-16.4716102]}},{"type":"Feature","properties":{"codigo":"I-1"},"geometry":{"type":"Point","coordinates":[-71.5003854,-16.4719832]}},{"type":"Feature","properties":{"codigo":"RDB"},"geometry":{"type":"Point","coordinates":[-71.4834974,-16.4723946]}},{"type":"Feature","properties":{"codigo":"RDM-1"},"geometry":{"type":"Point","coordinates":[-71.5265484,-16.4724893]}},{"type":"Feature","properties":{"codigo":"RDB"},"geometry":{"type":"Point","coordinates":[-71.4958221,-16.4731104]}},{"type":"Feature","properties":{"codigo":"RDB"},"geometry":{"type":"Point","coordinates":[-71.4629571,-16.4735629]}},{"type":"Feature","properties":{"codigo":"ZR"},"geometry":{"type":"Point","coordinates":[-71.4975086,-16.4737423]}},{"type":"Feature","properties":{"codigo":"RDM-2"},"geometry":{"type":"Point","coordinates":[-71.5218227,-16.4745024]}},{"type":"Feature","properties":{"codigo":"OU2"},"geometry":{"type":"Point","coordinates":[-71.5163511,-16.4744631]}},{"type":"Feature","properties":{"codigo":"ZR"},"geometry":{"type":"Point","coordinates":[-71.4947087,-16.4746801]}},{"type":"Feature","properties":{"codigo":"ZA"},"geometry":{"type":"Point","coordinates":[-71.4853856,-16.4751697]}},{"type":"Feature","properties":{"codigo":"RDB"},"geometry":{"type":"Point","coordinates":[-71.462914,-16.4753302]}},{"type":"Feature","properties":{"codigo":"ZA"},"geometry":{"type":"Point","coordinates":[-71.5363434,-16.4748317]}},{"type":"Feature","properties":{"codigo":"OU2"},"geometry":{"type":"Point","coordinates":[-71.5973776,-16.4750925]}},{"type":"Feature","properties":{"codigo":"ZR"},"geometry":{"type":"Point","coordinates":[-71.484644,-16.4768401]}},{"type":"Feature","properties":{"codigo":"ZA"},"geometry":{"type":"Point","coordinates":[-71.4785159,-16.4766184]}},{"type":"Feature","properties":{"codigo":"ZA"},"geometry":{"type":"Point","coordinates":[-71.4732434,-16.476828]}},{"type":"Feature","properties":{"codigo":"ZAQ"},"geometry":{"type":"Point","coordinates":[-71.4561539,-16.4765876]}},{"type":"Feature","properties":{"codigo":"RDB"},"geometry":{"type":"Point","coordinates":[-71.5288062,-16.4768579]}},{"type":"Feature","properties":{"codigo":"RDM-1"},"geometry":{"type":"Point","coordinates":[-71.5027174,-16.4770454]}},{"type":"Feature","properties":{"codigo":"RDM-1"},"geometry":{"type":"Point","coordinates":[-71.4812758,-16.4776373]}},{"type":"Feature","properties":{"codigo":"RDB"},"geometry":{"type":"Point","coordinates":[-71.4774417,-16.477851]}},{"type":"Feature","properties":{"codigo":"ZA"},"geometry":{"type":"Point","coordinates":[-71.4654289,-16.4776985]}},{"type":"Feature","properties":{"codigo":"ZAQ"},"geometry":{"type":"Point","coordinates":[-71.5465467,-16.478094]}},{"type":"Feature","properties":{"codigo":"RDB"},"geometry":{"type":"Point","coordinates":[-71.5301831,-16.4788184]}},{"type":"Feature","properties":{"codigo":"RDM-2"},"geometry":{"type":"Point","coordinates":[-71.5164809,-16.4777637]}},{"type":"Feature","properties":{"codigo":"RDM-1"},"geometry":{"type":"Point","coordinates":[-71.4933393,-16.4783563]}},{"type":"Feature","properties":{"codigo":"OU1"},"geometry":{"type":"Point","coordinates":[-71.4879148,-16.4786102]}},{"type":"Feature","properties":{"codigo":"ZR"},"geometry":{"type":"Point","coordinates":[-71.4817731,-16.4790617]}},{"type":"Feature","properties":{"codigo":"ZA"},"geometry":{"type":"Point","coordinates":[-71.4788975,-16.479201]}},{"type":"Feature","properties":{"codigo":"RDB"},"geometry":{"type":"Point","coordinates":[-71.4583588,-16.4788333]}},{"type":"Feature","properties":{"codigo":"RDB"},"geometry":{"type":"Point","coordinates":[-71.4768482,-16.4808869]}},{"type":"Feature","properties":{"codigo":"I-1"},"geometry":{"type":"Point","coordinates":[-71.472663,-16.4808733]}},{"type":"Feature","properties":{"codigo":"OU2"},"geometry":{"type":"Point","coordinates":[-71.6169062,-16.4799178]}},{"type":"Feature","properties":{"codigo":"RDM-1"},"geometry":{"type":"Point","coordinates":[-71.4830688,-16.4814862]}},{"type":"Feature","properties":{"codigo":"ZRE-RI2"},"geometry":{"type":"Point","coordinates":[-71.4570695,-16.4820036]}},{"type":"Feature","properties":{"codigo":"RDM-1"},"geometry":{"type":"Point","coordinates":[-71.5089371,-16.4826919]}},{"type":"Feature","properties":{"codigo":"ZRE-PP"},"geometry":{"type":"Point","coordinates":[-71.525332,-16.4832098]}},{"type":"Feature","properties":{"codigo":"RDM-1"},"geometry":{"type":"Point","coordinates":[-71.4952213,-16.4840339]}},{"type":"Feature","properties":{"codigo":"CZ"},"geometry":{"type":"Point","coordinates":[-71.5019701,-16.4856149]}},{"type":"Feature","properties":{"codigo":"OU2"},"geometry":{"type":"Point","coordinates":[-71.5054948,-16.4862247]}},{"type":"Feature","properties":{"codigo":"ZRE-PP"},"geometry":{"type":"Point","coordinates":[-71.4663886,-16.4866265]}},{"type":"Feature","properties":{"codigo":"OU1"},"geometry":{"type":"Point","coordinates":[-71.4670579,-16.487523]}},{"type":"Feature","properties":{"codigo":"RDB"},"geometry":{"type":"Point","coordinates":[-71.4741673,-16.4877756]}},{"type":"Feature","properties":{"codigo":"ZR"},"geometry":{"type":"Point","coordinates":[-71.4685072,-16.4883894]}},{"type":"Feature","properties":{"codigo":"ZRE-RI2"},"geometry":{"type":"Point","coordinates":[-71.4585465,-16.4884857]}},{"type":"Feature","properties":{"codigo":"RDM-1"},"geometry":{"type":"Point","coordinates":[-71.5155718,-16.4883753]}},{"type":"Feature","properties":{"codigo":"ZRE-RI2"},"geometry":{"type":"Point","coordinates":[-71.4616772,-16.4895426]}},{"type":"Feature","properties":{"codigo":"ZRE-RI2"},"geometry":{"type":"Point","coordinates":[-71.4541569,-16.4895889]}},{"type":"Feature","properties":{"codigo":"RDM-1"},"geometry":{"type":"Point","coordinates":[-71.4922723,-16.490358]}},{"type":"Feature","properties":{"codigo":"ZA"},"geometry":{"type":"Point","coordinates":[-71.4709915,-16.4934712]}},{"type":"Feature","properties":{"codigo":"ZRE-RI2"},"geometry":{"type":"Point","coordinates":[-71.4850098,-16.4952191]}},{"type":"Feature","properties":{"codigo":"RDM-2"},"geometry":{"type":"Point","coordinates":[-71.5089504,-16.4955641]}},{"type":"Feature","properties":{"codigo":"ZRE-RI2"},"geometry":{"type":"Point","coordinates":[-71.4629155,-16.4960906]}},{"type":"Feature","properties":{"codigo":"ZAQ"},"geometry":{"type":"Point","coordinates":[-71.4853677,-16.5008308]}},{"type":"Feature","properties":{"codigo":"ZRE-RI2"},"geometry":{"type":"Point","coordinates":[-71.5208673,-16.5017096]}},{"type":"Feature","properties":{"codigo":"I-1"},"geometry":{"type":"Point","coordinates":[-71.5039279,-16.5050682]}},{"type":"Feature","properties":{"codigo":"ZAQ"},"geometry":{"type":"Point","coordinates":[-71.4822583,-16.5202396]}},{"type":"Feature","properties":{"codigo":"ZAQ"},"geometry":{"type":"Point","coordinates":[-71.4760346,-16.5211759]}},{"type":"Feature","properties":{"codigo":"ZAQ"},"geometry":{"type":"Point","coordinates":[-71.4719995,-16.5210554]}},{"type":"Feature","properties":{"codigo":"ZRE-RI2"},"geometry":{"type":"Point","coordinates":[-71.481747,-16.5214025]}},{"type":"Feature","properties":{"codigo":"RDM-1"},"geometry":{"type":"Point","coordinates":[-71.4839321,-16.5234798]}},{"type":"Feature","properties":{"codigo":"ZRE-RI2"},"geometry":{"type":"Point","coordinates":[-71.4733264,-16.5261719]}},{"type":"Feature","properties":{"codigo":"ZAQ"},"geometry":{"type":"Point","coordinates":[-71.4688423,-16.5265405]}}]}